ORBCOMM FM33 [-]        
1 25983U 99065D   23282.65236432  .00003010  00000+0  10565-2 0  9996
2 25983  45.0302  42.1650 0010010 205.0026 169.9058 14.36813531247307
ORBCOMM FM36 [-]        
1 25984U 99065E   23282.92850275  .00002050  00000+0  76703-3 0  9994
2 25984  45.0384 122.6807 0003891  86.7859 273.3433 14.34689154245825
ORBCOMM FM35 [+]        
1 25985U 99065F   23282.91799321  .00001936  00000+0  73132-3 0  9993
2 25985  45.0390 124.8029 0002796 189.9199 170.1594 14.34395522246229
ORBCOMM FM34 [-]        
1 25986U 99065G   23282.74261679  .00001879  00000+0  71233-3 0  9991
2 25986  45.0385 126.1011 0003733 130.3775 229.7398 14.34341040246311
ORBCOMM FM38 [-]        
1 33060U 08031A   23282.49396481  .00003870  00000+0  58324-3 0  9997
2 33060  48.4429   1.4481 0006343 277.6013  82.4180 14.76153471823493
ORBCOMM FM41 [-]        
1 33061U 08031B   23282.73209544  .00003855  00000+0  58426-3 0  9994
2 33061  48.4465   6.4661 0005488 266.3646 234.0466 14.75922022823032
ORBCOMM FM29 [-]        
1 33062U 08031C   23282.70985817  .00004138  00000+0  62658-3 0  9993
2 33062  48.4416  14.5484 0007357 264.2156 253.4800 14.75800562822942
ORBCOMM FM39 [-]        
1 33063U 08031D   23282.78450198  .00004341  00000+0  66867-3 0  9993
2 33063  48.4426  33.2376 0008223 242.5343 117.4735 14.74960649822670
